STARLINK-30532          
1 58070U 23158V   26068.25529094  .00003865  00000+0  15373-3 0  9990
2 58070  43.0022  29.4830 0000765 276.0895  83.9869 15.26732748133504
GESAT GEN1              
1 62612U 25009D   26068.72662138  .00010041  00000+0  38326-3 0  9990
2 62612  97.4058 151.4598 0000888  98.3547 261.7793 15.26847505 63732
